{
  "type": "FeatureCollection",
  "features": [
    {
      "type": "Feature",
      "properties": {
        "norad_id": 66371,
        "name": "STARLINK-35804",
        "group": "last-30-days",
        "lat": 20.028458505153136,
        "lon": 122.6537633166195,
        "alt_km": 343.4919924458636,
        "timestamp": "2025-12-03T22:42:31.474716+00:00",
        "meta_object_name": "STARLINK-35804",
        "meta_object_id": "2025-254Z",
        "meta_epoch": "2025-12-03T09:52:01.901568",
        "meta_mean_motion": 15.74274103,
        "meta_eccentricity": 0.0001365,
        "meta_inclination": 53.1568,
        "meta_ra_of_asc_node": 321.1736,
        "meta_arg_of_pericenter": 90.8808,
        "meta_mean_anomaly": 269.2368,
        "meta_ephemeris_type": 0,
        "meta_classification_type": "U",
        "meta_norad_cat_id": 66371,
        "meta_element_set_no": 999,
        "meta_rev_at_epoch": 421,
        "meta_bstar": 0.0016754,
        "meta_mean_motion_dot": 0.00253185,
        "meta_mean_motion_ddot": 0,
        "tle_line1": "1 66371U 25254Z   25337.41113312  .00253185  00000+0  16754-2 0  9995",
        "tle_line2": "2 66371  53.1568 321.1736 0001365  90.8808 269.2368 15.74274103  4211"
      },
      "geometry": {
        "type": "Point",
        "coordinates": [
          122.6537633166195,
          20.028458505153136
        ]
      }
    },
    {
      "type": "Feature",
      "properties": {
        "norad_id": 66372,
        "name": "STARLINK-35821",
        "group": "last-30-days",
        "lat": 21.63055724008527,
        "lon": 121.22447606311509,
        "alt_km": 343.6088100072775,
        "timestamp": "2025-12-03T22:42:31.474725+00:00",
        "meta_object_name": "STARLINK-35821",
        "meta_object_id": "2025-254AA",
        "meta_epoch": "2025-12-03T09:52:31.292256",
        "meta_mean_motion": 15.74238222,
        "meta_eccentricity": 0.0001585,
        "meta_inclination": 53.1572,
        "meta_ra_of_asc_node": 321.177,
        "meta_arg_of_pericenter": 85.0456,
        "meta_mean_anomaly": 275.0745,
        "meta_ephemeris_type": 0,
        "meta_classification_type": "U",
        "meta_norad_cat_id": 66372,
        "meta_element_set_no": 999,
        "meta_rev_at_epoch": 421,
        "meta_bstar": 0.0010592,
        "meta_mean_motion_dot": 0.00157762,
        "meta_mean_motion_ddot": 0,
        "tle_line1": "1 66372U 25254AA  25337.41147329  .00157762  00000+0  10592-2 0  9999",
        "tle_line2": "2 66372  53.1572 321.1770 0001585  85.0456 275.0745 15.74238222  4210"
      },
      "geometry": {
        "type": "Point",
        "coordinates": [
          121.22447606311509,
          21.63055724008527
        ]
      }
    },
    {
      "type": "Feature",
      "properties": {
        "norad_id": 66373,
        "name": "STARLINK-35809",
        "group": "last-30-days",
        "lat": 18.653217963457244,
        "lon": 123.85070579774285,
        "alt_km": 343.86305945873573,
        "timestamp": "2025-12-03T22:42:31.474734+00:00",
        "meta_object_name": "STARLINK-35809",
        "meta_object_id": "2025-254AB",
        "meta_epoch": "2025-12-03T09:51:32.798592",
        "meta_mean_motion": 15.74241953,
        "meta_eccentricity": 0.0001457,
        "meta_inclination": 53.1571,
        "meta_ra_of_asc_node": 321.1711,
        "meta_arg_of_pericenter": 100.0796,
        "meta_mean_anomaly": 260.0388,
        "meta_ephemeris_type": 0,
        "meta_classification_type": "U",
        "meta_norad_cat_id": 66373,
        "meta_element_set_no": 999,
        "meta_rev_at_epoch": 421,
        "meta_bstar": 0.0012282,
        "meta_mean_motion_dot": 0.00183632,
        "meta_mean_motion_ddot": 0,
        "tle_line1": "1 66373U 25254AB  25337.41079628  .00183632  00000+0  12282-2 0  9999",
        "tle_line2": "2 66373  53.1571 321.1711 0001457 100.0796 260.0388 15.74241953  4210"
      },
      "geometry": {
        "type": "Point",
        "coordinates": [
          123.85070579774285,
          18.653217963457244
        ]
      }
    },
    {
      "type": "Feature",
      "properties": {
        "norad_id": 66374,
        "name": "STARLINK-35831",
        "group": "last-30-days",
        "lat": 17.147512099432902,
        "lon": 125.13197565139174,
        "alt_km": 344.2485818268224,
        "timestamp": "2025-12-03T22:42:31.474743+00:00",
        "meta_object_name": "STARLINK-35831",
        "meta_object_id": "2025-254AC",
        "meta_epoch": "2025-12-03T09:51:03.706848",
        "meta_mean_motion": 15.74248824,
        "meta_eccentricity": 0.000176,
        "meta_inclination": 53.1571,
        "meta_ra_of_asc_node": 321.1689,
        "meta_arg_of_pericenter": 85.5161,
        "meta_mean_anomaly": 274.606,
        "meta_ephemeris_type": 0,
        "meta_classification_type": "U",
        "meta_norad_cat_id": 66374,
        "meta_element_set_no": 999,
        "meta_rev_at_epoch": 421,
        "meta_bstar": 0.0012684,
        "meta_mean_motion_dot": 0.00189875,
        "meta_mean_motion_ddot": 0,
        "tle_line1": "1 66374U 25254AC  25337.41045957  .00189875  00000+0  12684-2 0  9999",
        "tle_line2": "2 66374  53.1571 321.1689 0001760  85.5161 274.6060 15.74248824  4217"
      },
      "geometry": {
        "type": "Point",
        "coordinates": [
          125.13197565139174,
          17.147512099432902
        ]
      }
    },
    {
      "type": "Feature",
      "properties": {
        "norad_id": 66375,
        "name": "STARLINK-35826",
        "group": "last-30-days",
        "lat": 15.517104172922382,
        "lon": 126.4881817024939,
        "alt_km": 344.10091663577623,
        "timestamp": "2025-12-03T22:42:31.474752+00:00",
        "meta_object_name": "STARLINK-35826",
        "meta_object_id": "2025-254AD",
        "meta_epoch": "2025-12-03T09:50:34.323936",
        "meta_mean_motion": 15.74286775,
        "meta_eccentricity": 0.0001356,
        "meta_inclination": 53.1566,
        "meta_ra_of_asc_node": 321.1665,
        "meta_arg_of_pericenter": 94.4248,
        "meta_mean_anomaly": 265.6926,
        "meta_ephemeris_type": 0,
        "meta_classification_type": "U",
        "meta_norad_cat_id": 66375,
        "meta_element_set_no": 999,
        "meta_rev_at_epoch": 421,
        "meta_bstar": 0.0018858,
        "meta_mean_motion_dot": 0.00286357,
        "meta_mean_motion_ddot": 0,
        "tle_line1": "1 66375U 25254AD  25337.41011949  .00286357  00000+0  18858-2 0  9996",
        "tle_line2": "2 66375  53.1566 321.1665 0001356  94.4248 265.6926 15.74286775  4210"
      },
      "geometry": {
        "type": "Point",
        "coordinates": [
          126.4881817024939,
          15.517104172922382
        ]
      }
    },
    {
      "type": "Feature",
      "properties": {
        "norad_id": 66376,
        "name": "SHIYAN-32 01",
        "group": "last-30-days",
        "lat": 18.924948066957523,
        "lon": -125.14049000228059,
        "alt_km": 428.3739210819349,
        "timestamp": "2025-12-03T22:42:31.474762+00:00",
        "meta_object_name": "SHIYAN-32 01",
        "meta_object_id": "2025-255A",
        "meta_epoch": "2025-12-03T16:23:04.723584",
        "meta_mean_motion": 15.42297685,
        "meta_eccentricity": 0.0013423,
        "meta_inclination": 52.9966,
        "meta_ra_of_asc_node": 221.1254,
        "meta_arg_of_pericenter": 14.1628,
        "meta_mean_anomaly": 345.9749,
        "meta_ephemeris_type": 0,
        "meta_classification_type": "U",
        "meta_norad_cat_id": 66376,
        "meta_element_set_no": 999,
        "meta_rev_at_epoch": 395,
        "meta_bstar": 0.00064685,
        "meta_mean_motion_dot": 0.00028053,
        "meta_mean_motion_ddot": 0,
        "tle_line1": "1 66376U 25255A   25337.68269356  .00028053  00000+0  64685-3 0  9991",
        "tle_line2": "2 66376  52.9966 221.1254 0013423  14.1628 345.9749 15.42297685  3956"
      },
      "geometry": {
        "type": "Point",
        "coordinates": [
          -125.14049000228059,
          18.924948066957523
        ]
      }
    },
    {
      "type": "Feature",
      "properties": {
        "norad_id": 66377,
        "name": "CZ-11 DEB",
        "group": "last-30-days",
        "lat": 52.89505215170831,
        "lon": -45.846004737865464,
        "alt_km": 426.7618661654451,
        "timestamp": "2025-12-03T22:42:31.474771+00:00",
        "meta_object_name": "CZ-11 DEB",
        "meta_object_id": "2025-255B",
        "meta_epoch": "2025-12-03T11:25:56.511264",
        "meta_mean_motion": 15.43539883,
        "meta_eccentricity": 0.0013947,
        "meta_inclination": 52.9966,
        "meta_ra_of_asc_node": 221.9735,
        "meta_arg_of_pericenter": 11.151,
        "meta_mean_anomaly": 348.9801,
        "meta_ephemeris_type": 0,
        "meta_classification_type": "U",
        "meta_norad_cat_id": 66377,
        "meta_element_set_no": 999,
        "meta_rev_at_epoch": 378,
        "meta_bstar": 0.00098972,
        "meta_mean_motion_dot": 0.00045113,
        "meta_mean_motion_ddot": 0,
        "tle_line1": "1 66377U 25255B   25337.47634851  .00045113  00000+0  98972-3 0  9997",
        "tle_line2": "2 66377  52.9966 221.9735 0013947  11.1510 348.9801 15.43539883  3780"
      },
      "geometry": {
        "type": "Point",
        "coordinates": [
          -45.846004737865464,
          52.89505215170831
        ]
      }
    }
  ]
}